     3.04           N: GNSS NAV DATA    M: Mixed            RINEX VERSION / TYPE
CONVBIN 2.4.3                           20250917 055444 UTC PGM / RUN BY / DATE 
format: u-blox UBX                                          COMMENT             
log: D:\GPdata\9_17\NEW_1_arounds_9_17.ubx                  COMMENT             
                                                            END OF HEADER       
C14 2025 09 17 05 00 00 -.320585328154D-03 -.428226343274D-10  .000000000000D+00
      .100000000000D+01 -.109343750000D+03  .344050045351D-08  .160644511832D+01
     -.529037788510D-05  .113269267604D-02  .347197055817D-05  .528263620758D+04
      .277200000000D+06 -.451691448689D-07  .137392165980D+01 -.316649675369D-07
      .982269073621D+00  .305343750000D+03  .159146062398D+00 -.685457123469D-08
     -.256439253153D-09  .000000000000D+00  .102800000000D+04  .000000000000D+00
      .200000000000D+01  .000000000000D+00  .700000000000D-08  .190000000000D-08
      .279240000000D+06  .000000000000D+00
C24 2025 09 17 05 00 00  .277325394563D-03 -.242090791858D-10  .000000000000D+00
      .100000000000D+01  .254062500000D+02  .439661170795D-08 -.533559303012D+00
      .134250149131D-05  .697234645486D-03  .751158222556D-05  .528262989235D+04
      .277200000000D+06  .116415321827D-07 -.282117368875D+01 -.172294676304D-07
      .944475701250D+00  .202375000000D+03  .666216942656D+00 -.698814822728D-08
      .477877048354D-09  .000000000000D+00  .102800000000D+04  .000000000000D+00
      .200000000000D+01  .000000000000D+00  .590000000000D-08  .590000000000D-08
      .279240000000D+06  .100000000000D+01
C33 2025 09 17 05 00 00 -.973363406956D-03 -.362554430922D-11  .000000000000D+00
      .100000000000D+01 -.108406250000D+03  .338656963565D-08  .588653340620D+00
     -.520469620824D-05  .476031564176D-03  .332761555910D-05  .528263412857D+04
      .277200000000D+06 -.959262251854D-07  .136939717602D+01  .256113708019D-07
      .983704719982D+00  .306515625000D+03  .782197260604D+00 -.683421324384D-08
     -.216794744657D-09  .000000000000D+00  .102800000000D+04  .000000000000D+00
      .200000000000D+01  .000000000000D+00 -.429000000000D-07 -.429000000000D-07
      .279240000000D+06  .100000000000D+01
C21 2025 09 17 05 00 00 -.967885018326D-03  .971223101942D-11  .000000000000D+00
      .100000000000D+01 -.924218750000D+02  .352371820558D-08  .284973896217D+01
     -.466918572783D-05  .523164402694D-03  .334950163960D-05  .528263067436D+04
      .277200000000D+06  .465661287308D-08  .137798950833D+01  .181607902050D-07
      .984133511511D+00  .305765625000D+03  .815462385110D-01 -.689993026693D-08
     -.208580116771D-09  .000000000000D+00  .102800000000D+04  .000000000000D+00
      .200000000000D+01  .000000000000D+00  .133000000000D-07  .133000000000D-07
      .279240000000D+06  .100000000000D+01
C08 2025 09 17 05 00 00 -.887112459168D-03  .272342148833D-10  .000000000000D+00
      .100000000000D+01 -.818437500000D+02  .980397980368D-09 -.738795600134D+00
     -.283075496554D-05  .360223371536D-02 -.677118077874D-05  .649300352669D+04
      .277200000000D+06 -.335741788149D-06  .863872155446D+00 -.115949660540D-06
      .108226000418D+01  .493015625000D+03  .309041035652D+01 -.251510476421D-08
      .278583032673D-10  .000000000000D+00  .102800000000D+04  .000000000000D+00
      .200000000000D+01  .000000000000D+00  .110000000000D-07 -.700000000000D-09
      .279240000000D+06  .000000000000D+00
C13 2025 09 17 05 00 00 -.129245454445D-03 -.127666766048D-10  .000000000000D+00
      .100000000000D+01 -.705625000000D+02  .108933108930D-08 -.175723278071D+01
     -.215088948607D-05  .549609633163D-02 -.839168205857D-05  .649348282623D+04
      .277200000000D+06 -.332947820425D-06  .829373682743D+00 -.437721610069D-07
      .104422878912D+01  .533531250000D+03 -.232368814618D+01 -.263296681649D-08
      .732173355102D-10  .000000000000D+00  .102800000000D+04  .000000000000D+00
      .200000000000D+01  .000000000000D+00 -.980000000000D-08  .270000000000D-08
      .279240000000D+06  .000000000000D+00
C06 2025 09 17 05 00 00  .905927852727D-03 -.342366135442D-10  .000000000000D+00
      .100000000000D+01 -.592656250000D+02  .116469137121D-08  .271504910549D+01
     -.151572749019D-05  .473804469220D-02  .228416174650D-04  .649387421036D+04
      .277200000000D+06  .842846930027D-07  .300604165750D+01 -.144354999065D-07
      .948274868780D+00 -.465062500000D+03 -.253624327909D+01 -.178757445965D-08
      .103218585183D-08  .000000000000D+00  .102800000000D+04  .000000000000D+00
      .200000000000D+01  .000000000000D+00  .840000000000D-08 -.150000000000D-08
      .279240000000D+06  .000000000000D+00
C16 2025 09 17 05 00 00 -.799176748842D-03 -.376028097548D-10  .000000000000D+00
      .100000000000D+01 -.652343750000D+02  .109683140172D-08  .247810774848D+01
     -.172760337591D-05  .909812992904D-02  .228732824326D-04  .649316336632D+04
      .277200000000D+06  .181607902050D-07  .300595371564D+01 -.151339918375D-06
      .963826859760D+00 -.459312500000D+03 -.216505934675D+01 -.176007331412D-08
      .104754363440D-08  .000000000000D+00  .102800000000D+04  .000000000000D+00
      .200000000000D+01  .000000000000D+00 -.270000000000D-08  .460000000000D-08
      .279240000000D+06  .000000000000D+00
C09 2025 09 17 05 00 00 -.131411361508D-03  .348165940522D-10  .000000000000D+00
      .100000000000D+01 -.542812500000D+02  .904680540719D-09  .220300050457D+01
     -.102818012238D-05  .143725111848D-01  .228853896260D-04  .649367284775D+04
      .277200000000D+06  .735279172659D-06  .305296613881D+01  .987201929092D-06
      .953545234506D+00 -.479515625000D+03 -.226339144231D+01 -.118683515073D-08
      .874322133312D-09  .000000000000D+00  .102800000000D+04  .000000000000D+00
      .200000000000D+01  .000000000000D+00  .650000000000D-08  .380000000000D-08
      .279240000000D+06  .000000000000D+00
G10 2025 09 17 06 00 00 -.529452227056D-03 -.750333128963D-11  .000000000000D+00
      .520000000000D+02 -.687500000000D+01  .395980779903D-08 -.156298150765D+01
     -.335276126862D-06  .105046726530D-01  .222772359848D-05  .515364818192D+04
      .280800000000D+06  .182539224625D-06  .840854435614D+00 -.100582838058D-06
      .990683203486D+00  .353031250000D+03 -.231687862094D+01 -.797997525514D-08
     -.153577825704D-10  .100000000000D+01  .238400000000D+04  .000000000000D+00
      .200000000000D+01  .000000000000D+00  .232830643654D-08  .520000000000D+02
      .279276000000D+06  .400000000000D+01
G23 2025 09 17 06 00 00  .543883070350D-03  .579802872380D-11  .000000000000D+00
      .144000000000D+03  .209375000000D+01  .420803242430D-08 -.397704065308D+00
     -.577419996262D-07  .567582575604D-02  .249035656452D-05  .515367201042D+04
      .280800000000D+06  .875443220139D-07  .809563109439D+00  .149011611938D-07
      .985751178528D+00  .345812500000D+03 -.283067031802D+01 -.822069956799D-08
     -.728601777760D-10  .100000000000D+01  .238400000000D+04  .000000000000D+00
      .200000000000D+01  .000000000000D+00 -.838190317154D-08  .400000000000D+03
      .279276000000D+06  .400000000000D+01
G25 2025 09 17 06 00 00  .471365638077D-03 -.181898940355D-11  .000000000000D+00
      .620000000000D+02  .199687500000D+02  .529093467438D-08 -.852616267713D+00
      .132992863655D-05  .124556545634D-01  .588968396187D-05  .515356609535D+04
      .280800000000D+06 -.447034835815D-07 -.233178375343D+01  .258907675743D-06
      .948029287259D+00  .263718750000D+03  .113029968257D+01 -.848035324075D-08
      .142148778210D-09  .100000000000D+01  .238400000000D+04  .000000000000D+00
      .200000000000D+01  .000000000000D+00  .558793544769D-08  .620000000000D+02
      .279276000000D+06  .400000000000D+01
G12 2025 09 17 06 00 00 -.599004328251D-03 -.102318153949D-11  .000000000000D+00
      .490000000000D+02  .181562500000D+02  .502699510881D-08 -.831555802071D+00
      .104121863842D-05  .874527066480D-02  .614859163761D-05  .515362391472D+04
      .280800000000D+06 -.135973095894D-06 -.223980101638D+01  .633299350739D-07
      .959707833969D+00  .268343750000D+03  .151992833475D+01 -.833463288520D-08
      .111433213069D-09  .100000000000D+01  .238400000000D+04  .000000000000D+00
      .280000000000D+01  .000000000000D+00 -.125728547573D-07  .490000000000D+02
      .279276000000D+06  .400000000000D+01
G32 2025 09 17 06 00 00 -.321828760207D-03  .137561073643D-10  .000000000000D+00
      .280000000000D+02 -.122531250000D+03  .406124059554D-08 -.284811670160D+01
     -.618584454060D-05  .866149831563D-02  .773184001446D-05  .515366627312D+04
      .280800000000D+06  .260770320892D-07  .187006057311D+01 -.465661287308D-07
      .965855093273D+00  .230500000000D+03 -.206063571151D+01 -.777532387345D-08
     -.971469037013D-10  .100000000000D+01  .238400000000D+04  .000000000000D+00
      .200000000000D+01  .000000000000D+00  .931322574615D-09  .280000000000D+02
      .279276000000D+06  .400000000000D+01
G28 2025 09 17 06 00 00 -.638523604721D-03  .113686837722D-12  .000000000000D+00
      .199000000000D+03 -.236875000000D+02  .425803450709D-08 -.156593636079D+00
     -.108778476715D-05  .401676166803D-03  .106785446405D-04  .515368110847D+04
      .280800000000D+06  .931322574615D-08  .289896826946D+01  .223517417908D-07
      .962053741606D+00  .172125000000D+03  .405302273095D+00 -.779996775711D-08
      .486448833975D-09  .100000000000D+01  .238400000000D+04  .000000000000D+00
      .200000000000D+01  .000000000000D+00 -.931322574615D-08  .199000000000D+03
      .279276000000D+06  .400000000000D+01
G15 2025 09 17 06 00 00  .338978599757D-03  .375166564481D-11  .000000000000D+00
      .500000000000D+02 -.109000000000D+03  .486591697069D-08  .168829876858D+01
     -.607036054134D-05  .167066731956D-01  .535324215889D-05  .515363733482D+04
      .280800000000D+06  .894069671631D-07  .171363421001D+01 -.394880771637D-06
      .940291590233D+00  .268062500000D+03  .146251461963D+01 -.833641867387D-08
     -.178936024832D-09  .100000000000D+01  .238400000000D+04  .000000000000D+00
      .200000000000D+01  .000000000000D+00 -.107102096081D-07  .500000000000D+02
      .279276000000D+06  .400000000000D+01
C25 2025 09 17 05 00 00  .853578094393D-03  .113740128427D-10  .000000000000D+00
      .100000000000D+01  .251250000000D+02  .426339187310D-08 -.137508105456D+01
      .130292028189D-05  .585988280363D-03  .781146809459D-05  .528265571022D+04
      .277200000000D+06  .377185642719D-07 -.284407776764D+01 -.838190317154D-08
      .946078998022D+00  .191937500000D+03  .675271216214D+00 -.689421574319D-08
      .492520515456D-09  .000000000000D+00  .102800000000D+04  .000000000000D+00
      .200000000000D+01  .000000000000D+00  .240000000000D-08  .240000000000D-08
      .279420000000D+06  .100000000000D+01
